$$SOE
2460154.500000000, A.D. 2023-Jul-29 00:00:00.0000, -1.595966662711587E+08, -2.443122712364634E+08, 9.440402828323363E+07,
2460161.500000000, A.D. 2023-Aug-05 00:00:00.0000, -1.494377811900391E+08, -2.505080923284379E+08, 9.704466775501788E+07,
2460168.500000000, A.D. 2023-Aug-12 00:00:00.0000, -1.390292449960864E+08, -2.562853827522941E+08, 9.952316875402562E+07,
2460175.500000000, A.D. 2023-Aug-19 00:00:00.0000, -1.283899637580446E+08, -2.616372786147418E+08, 1.018364725577029E+08,
2460182.500000000, A.D. 2023-Aug-26 00:00:00.0000, -1.175389154489892E+08, -2.665575768494664E+08, 1.039817818478696E+08,
2460189.500000000, A.D. 2023-Sep-02 00:00:00.0000, -1.064951322166408E+08, -2.710407223261869E+08, 1.059565559015720E+08,
2460196.500000000, A.D. 2023-Sep-09 00:00:00.0000, -9.527768410228346E+07, -2.750817955167895E+08, 1.077585059222733E+08,
2460203.500000000, A.D. 2023-Sep-16 00:00:00.0000, -8.390566392379293E+07, -2.786765008449911E+08, 1.093855905211404E+08,
2460210.500000000, A.D. 2023-Sep-23 00:00:00.0000, -7.239817279155768E+07, -2.818211554915972E+08, 1.108360113592514E+08,
2460217.500000000, A.D. 2023-Sep-30 00:00:00.0000, -6.077430648415811E+07, -2.845126775145351E+08, 1.121082091009186E+08,
2460224.500000000, A.D. 2023-Oct-07 00:00:00.0000, -4.905314492643234E+07, -2.867485738672302E+08, 1.132008598669502E+08,
2460231.500000000, A.D. 2023-Oct-14 00:00:00.0000, -3.725374361947550E+07, -2.885269316631742E+08, 1.141128718361465E+08,
2460238.500000000, A.D. 2023-Oct-21 00:00:00.0000, -2.539512368640152E+07, -2.898464111157332E+08, 1.148433818447092E+08,
2460245.500000000, A.D. 2023-Oct-28 00:00:00.0000, -1.349626185526596E+07, -2.907062379186724E+08, 1.153917523124055E+08,
2460252.500000000, A.D. 2023-Nov-04 00:00:00.0000, -1.576081528944204E+06, -2.911061958558345E+08, 1.157575685571693E+08,
2460259.500000000, A.D. 2023-Nov-11 00:00:00.0000, 1.034655533369263E+07, -2.910466202522822E+08, 1.159406364399245E+08,
2460266.500000000, A.D. 2023-Nov-18 00:00:00.0000, 2.225285584073648E+07, -2.905283923387382E+08, 1.159409803185781E+08,
2460273.500000000, A.D. 2023-Nov-25 00:00:00.0000, 3.412410346209605E+07, -2.895529345097784E+08, 1.157588413080180E+08,
2460280.500000000, A.D. 2023-Dec-02 00:00:00.0000, 4.594166511932614E+07, -2.881222064866686E+08, 1.153946758432692E+08,
2460287.500000000, A.D. 2023-Dec-09 00:00:00.0000, 5.768699824194779E+07, -2.862387024411364E+08, 1.148491545351191E+08,
2460294.500000000, A.D. 2023-Dec-16 00:00:00.0000, 6.934165816864973E+07, -2.839054490621554E+08, 1.141231612939218E+08,
2460301.500000000, A.D. 2023-Dec-23 00:00:00.0000, 8.088730633007729E+07, -2.811260038693098E+08, 1.132177927448398E+08,
2460308.500000000, A.D. 2023-Dec-30 00:00:00.0000, 9.230571795956089E+07, -2.779044527100352E+08, 1.121343581391407E+08,
2460315.500000000, A.D. 2024-Jan-06 00:00:00.0000, 1.035787876455933E+08, -2.742454087819986E+08, 1.108743797232899E+08,
2460322.500000000, A.D. 2024-Jan-13 00:00:00.0000, 1.146885359873066E+08, -2.701540149639143E+08, 1.094395931178400E+08,
2460329.500000000, A.D. 2024-Jan-20 00:00:00.0000, 1.256171186659482E+08, -2.656359463460377E+08, 1.078319478383305E+08,
2460336.500000000, A.D. 2024-Jan-27 00:00:00.0000, 1.363468359913944E+08, -2.606974122811735E+08, 1.060536081892416E+08,
2460343.500000000, A.D. 2024-Feb-03 00:00:00.0000, 1.468601425825233E+08, -2.553451588726756E+08, 1.041069544818802E+08,
2460350.500000000, A.D. 2024-Feb-10 00:00:00.0000, 1.571396575466250E+08, -2.495864721537087E+08, 1.019945845142417E+08,
2460357.500000000, A.D. 2024-Feb-17 00:00:00.0000, 1.671681753848417E+08, -2.434291819087811E+08, 9.971931528662796E+07,
2460364.500000000, A.D. 2024-Feb-24 00:00:00.0000, 1.769286777476948E+08, -2.368816660771608E+08, 9.728418493479165E+07,
2460371.500000000, A.D. 2024-Mar-02 00:00:00.0000, 1.864043461578827E+08, -2.299528557192739E+08, 9.469245485611200E+07,
2460378.500000000, A.D. 2024-Mar-09 00:00:00.0000, 1.955785759279114E+08, -2.226522405509350E+08, 9.194761198927633E+07,
2460385.500000000, A.D. 2024-Mar-16 00:00:00.0000, 2.044349917573536E+08, -2.149898747856851E+08, 8.905337120485403E+07,
2460392.500000000, A.D. 2024-Mar-23 00:00:00.0000, 2.129574649922905E+08, -2.069763821103728E+08, 8.601367788112850E+07,
2460399.500000000, A.D. 2024-Mar-30 00:00:00.0000, 2.211301303858929E+08, -1.986229597448132E+08, 8.283271083336358E+07,
2460406.500000000, A.D. 2024-Apr-06 00:00:00.0000, 2.289374026952058E+08, -1.899413848577904E+08, 7.951488525335558E+07,
2460413.500000000, A.D. 2024-Apr-13 00:00:00.0000, 2.363639967523996E+08, -1.809440223923729E+08, 7.606485535880598E+07,
2460420.500000000, A.D. 2024-Apr-20 00:00:00.0000, 2.433949501523205E+08, -1.716438315114975E+08, 7.248751702322510E+07,
2460427.500000000, A.D. 2024-Apr-27 00:00:00.0000, 2.500156471294321E+08, -1.620543711134494E+08, 6.878801044520590E+07,
2460434.500000000, A.D. 2024-May-04 00:00:00.0000, 2.562118437924005E+08, -1.521898050024196E+08, 6.497172274968419E+07,
2460441.500000000, A.D. 2024-May-11 00:00:00.0000, 2.619696950256978E+08, -1.420649066844505E+08, 6.104429043913557E+07,
2460448.500000000, A.D. 2024-May-18 00:00:00.0000, 2.672757832041329E+08, -1.316950636195244E+08, 5.701160162879417E+07,
2460455.500000000, A.D. 2024-May-25 00:00:00.0000, 2.721171488025090E+08, -1.210962807740570E+08, 5.287979799706583E+07,
2460462.500000000, A.D. 2024-Jun-01 00:00:00.0000, 2.764813230085454E+08, -1.102851833549832E+08, 4.865527636961661E+07,
2460469.500000000, A.D. 2024-Jun-08 00:00:00.0000, 2.803563626195675E+08, -9.927901855666502E+07, 4.434468983461495E+07,
2460476.500000000, A.D. 2024-Jun-15 00:00:00.0000, 2.837308876448987E+08, -8.809565556402527E+07, 3.995494831464151E+07,
2460483.500000000, A.D. 2024-Jun-22 00:00:00.0000, 2.865941206274297E+08, -7.675358241446859E+07, 3.549321870150016E+07,
2460490.500000000, A.D. 2024-Jun-29 00:00:00.0000, 2.889359255650501E+08, -6.527190131530156E+07, 3.096692451174290E+07,
2460497.500000000, A.D. 2024-Jul-06 00:00:00.0000, 2.907468490460253E+08, -5.367032464751642E+07, 2.638374451830165E+07,
2460504.500000000, A.D. 2024-Jul-13 00:00:00.0000, 2.920181654922885E+08, -4.196916857045995E+07, 2.175161030469925E+07,
2460511.500000000, A.D. 2024-Jul-20 00:00:00.0000, 2.927419244504120E+08, -3.018934280681084E+07, 1.707870290998233E+07,
2460518.500000000, A.D. 2024-Jul-27 00:00:00.0000, 2.929109991718760E+08, -1.835233728769823E+07, 1.237344843380751E+07,
2460525.500000000, A.D. 2024-Aug-03 00:00:00.0000, 2.925191366195940E+08, -6.480205744771147E+06, 7.644512429125490E+06,
2460532.500000000, A.D. 2024-Aug-10 00:00:00.0000, 2.915610088942635E+08, 5.404454041440889E+06, 2.900792946711827E+06,
2460539.500000000, A.D. 2024-Aug-17 00:00:00.0000, 2.900322659169437E+08, 1.727852365792447E+07, -1.848587893169382E+06,
2460546.500000000, A.D. 2024-Aug-24 00:00:00.0000, 2.879295891439768E+08, 2.911839141814835E+07, -6.594293929151932E+06,
2460553.500000000, A.D. 2024-Aug-31 00:00:00.0000, 2.852507461355626E+08, 4.089998389732362E+07, -1.132678672525879E+07,
2460560.500000000, A.D. 2024-Sep-07 00:00:00.0000, 2.819946459989918E+08, 5.259880205215169E+07, -1.603633921989891E+07,
2460567.500000000, A.D. 2024-Sep-14 00:00:00.0000, 2.781613953845174E+08, 6.418996319048629E+07, -2.071305129996635E+07,
2460574.500000000, A.D. 2024-Sep-21 00:00:00.0000, 2.737523525563926E+08, 7.564824946707083E+07, -2.534686718712336E+07,
2460581.500000000, A.D. 2024-Sep-28 00:00:00.0000, 2.687701785754395E+08, 8.694815990258631E+07, -2.992759495704399E+07,
2460588.500000000, A.D. 2024-Oct-05 00:00:00.0000, 2.632188887138014E+08, 9.806396609898919E+07, -3.444492862002645E+07,
2460595.500000000, A.D. 2024-Oct-12 00:00:00.0000, 2.571039031228555E+08, 1.089697747626639E+08, -3.888847255732300E+07,
2460602.500000000, A.D. 2024-Oct-19 00:00:00.0000, 2.504320943362099E+08, 1.196395968453803E+08, -4.324776821980613E+07,
2460609.500000000, A.D. 2024-Oct-26 00:00:00.0000, 2.432118308584849E+08, 1.300474225241985E+08, -4.751232316601024E+07,
2460616.500000000, A.D. 2024-Nov-02 00:00:00.0000, 2.354530163384730E+08, 1.401673018361607E+08, -5.167164245811158E+07,
2460623.500000000, A.D. 2024-Nov-09 00:00:00.0000, 2.271671236391615E+08, 1.499734308873981E+08, -5.571526237832111E+07,
2460630.500000000, A.D. 2024-Nov-16 00:00:00.0000, 2.183672230341913E+08, 1.594402434538351E+08, -5.963278639903414E+07,
2460637.500000000, A.D. 2024-Nov-23 00:00:00.0000, 2.090680037749795E+08, 1.685425076406784E+08, -6.341392331829781E+07,
2460644.500000000, A.D. 2024-Nov-30 00:00:00.0000, 1.992857884333023E+08, 1.772554271657403E+08, -6.704852745094296E+07,
2460651.500000000, A.D. 2024-Dec-07 00:00:00.0000, 1.890385396470664E+08, 1.855547471798388E+08, -7.052664070563602E+07,
2460658.500000000, A.D. 2024-Dec-14 00:00:00.0000, 1.783458578070183E+08, 1.934168652146767E+08, -7.383853615856102E+07,
2460665.500000000, A.D. 2024-Dec-21 00:00:00.0000, 1.672289666204920E+08, 2.008189452810856E+08, -7.697476273110057E+07,
2460672.500000000, A.D. 2024-Dec-28 00:00:00.0000, 1.557106878716232E+08, 2.077390313249741E+08, -7.992619108338764E+07,
2460679.500000000, A.D. 2025-Jan-04 00:00:00.0000, 1.438154074176654E+08, 2.141561614521206E+08, -8.268406040579168E+07,
2460686.500000000, A.D. 2025-Jan-11 00:00:00.0000, 1.315690301202145E+08, 2.200504835051392E+08, -8.524002537606664E+07,
2460693.500000000, A.D. 2025-Jan-18 00:00:00.0000, 1.189989224289718E+08, 2.254033699308890E+08, -8.758620280018915E+07,
2460700.500000000, A.D. 2025-Jan-25 00:00:00.0000, 1.061338426422042E+08, 2.301975302708679E+08, -8.971521750612682E+07,
2460707.500000000, A.D. 2025-Feb-01 00:00:00.0000, 9.300385898783053E+07, 2.344171200058001E+08, -9.162024701480924E+07,
2460714.500000000, A.D. 2025-Feb-08 00:00:00.0000, 7.964025572787674E+07, 2.380478444902466E+08, -9.329506449052432E+07,
2460721.500000000, A.D. 2025-Feb-15 00:00:00.0000, 6.607542764996251E+07, 2.410770566443029E+08, -9.473407946014577E+07,
$$EOE